[
    {
        "Altitude(m)": 569029.3131719907,
        "Argument of Periapsis(deg)": 0.026491964442854003,
        "Eccentricity": 0.0,
        "Inclination(deg)": 53.0,
        "Latitude(deg)": -46.07364491473931,
        "Longitude(deg)": 167.89956264641296,
        "Mean Anomaly(deg)": 244.00277147031034,
        "RAAN(deg)": 39.96057347411206,
        "Satellite Name": "Starlink Shell 1 188",
        "Satellite Number": 188,
        "Semi-Major Axis(m)": 6931778.249405717,
        "Time(s)": 760
    },
    {
        "Altitude(m)": 569156.3639490328,
        "Argument of Periapsis(deg)": 0.02684054292236524,
        "Eccentricity": 0.0,
        "Inclination(deg)": 53.0,
        "Latitude(deg)": -46.384959326211415,
        "Longitude(deg)": 168.64002394776895,
        "Mean Anomaly(deg)": 244.62960267386703,
        "RAAN(deg)": 39.96005470403459,
        "Satellite Name": "Starlink Shell 1 188",
        "Satellite Number": 188,
        "Semi-Major Axis(m)": 6931778.249405717,
        "Time(s)": 770
    },
    {
        "Altitude(m)": 569281.0025242851,
        "Argument of Periapsis(deg)": 0.027189121401876473,
        "Eccentricity": 0.0,
        "Inclination(deg)": 53.0,
        "Latitude(deg)": -46.69084888713372,
        "Longitude(deg)": 169.38932433629697,
        "Mean Anomaly(deg)": 245.25643387742375,
        "RAAN(deg)": 39.95953593395712,
        "Satellite Name": "Starlink Shell 1 188",
        "Satellite Number": 188,
        "Semi-Major Axis(m)": 6931778.249405717,
        "Time(s)": 780
    },
    {
        "Altitude(m)": 569403.1796175088,
        "Argument of Periapsis(deg)": 0.02753769988138771,
        "Eccentricity": 0.0,
        "Inclination(deg)": 53.0,
        "Latitude(deg)": -46.99119538879896,
        "Longitude(deg)": 170.1474998473973,
        "Mean Anomaly(deg)": 245.8832650809805,
        "RAAN(deg)": 39.95901716387964,
        "Satellite Name": "Starlink Shell 1 188",
        "Satellite Number": 188,
        "Semi-Major Axis(m)": 6931778.249405717,
        "Time(s)": 790
    },
    {
        "Altitude(m)": 569522.84689434,
        "Argument of Periapsis(deg)": 0.02788627836089895,
        "Eccentricity": 0.0,
        "Inclination(deg)": 53.0,
        "Latitude(deg)": -47.28587952696607,
        "Longitude(deg)": 170.9145772483014,
        "Mean Anomaly(deg)": 246.5100962845372,
        "RAAN(deg)": 39.958498393802174,
        "Satellite Name": "Starlink Shell 1 188",
        "Satellite Number": 188,
        "Semi-Major Axis(m)": 6931778.249405717,
        "Time(s)": 800
    },
    {
        "Altitude(m)": 569639.9569874406,
        "Argument of Periapsis(deg)": 0.02823485684041019,
        "Eccentricity": 0.0,
        "Inclination(deg)": 53.0,
        "Latitude(deg)": -47.5747810176393,
        "Longitude(deg)": 171.69057399974437,
        "Mean Anomaly(deg)": 247.1369274880939,
        "RAAN(deg)": 39.957979623724704,
        "Satellite Name": "Starlink Shell 1 188",
        "Satellite Number": 188,
        "Semi-Major Axis(m)": 6931778.249405717,
        "Time(s)": 810
    },
    {
        "Altitude(m)": 569754.4635172358,
        "Argument of Periapsis(deg)": 0.028583435319921423,
        "Eccentricity": 0.0,
        "Inclination(deg)": 53.0,
        "Latitude(deg)": -47.85777872320531,
        "Longitude(deg)": 172.4754982131735,
        "Mean Anomaly(deg)": 247.7637586916506,
        "RAAN(deg)": 39.95746085364723,
        "Satellite Name": "Starlink Shell 1 188",
        "Satellite Number": 188,
        "Semi-Major Axis(m)": 6931778.249405717,
        "Time(s)": 820
    },
    {
        "Altitude(m)": 569866.3211121953,
        "Argument of Periapsis(deg)": 0.028932013799432665,
        "Eccentricity": 0.0,
        "Inclination(deg)": 53.0,
        "Latitude(deg)": -48.134750789164876,
        "Longitude(deg)": 173.26934709335168,
        "Mean Anomaly(deg)": 248.39058989520737,
        "RAAN(deg)": 39.95694208356976,
        "Satellite Name": "Starlink Shell 1 188",
        "Satellite Number": 188,
        "Semi-Major Axis(m)": 6931778.249405717,
        "Time(s)": 830
    },
    {
        "Altitude(m)": 569975.4854286825,
        "Argument of Periapsis(deg)": 0.029280592278943897,
        "Eccentricity": 0.0,
        "Inclination(deg)": 53.0,
        "Latitude(deg)": -48.40557479165668,
        "Longitude(deg)": 174.0721068951229,
        "Mean Anomaly(deg)": 249.01742109876403,
        "RAAN(deg)": 39.95642331349229,
        "Satellite Name": "Starlink Shell 1 188",
        "Satellite Number": 188,
        "Semi-Major Axis(m)": 6931778.249405717,
        "Time(s)": 840
    },
    {
        "Altitude(m)": 570081.9131703186,
        "Argument of Periapsis(deg)": 0.029629170758455132,
        "Eccentricity": 0.0,
        "Inclination(deg)": 53.0,
        "Latitude(deg)": -48.670127895906276,
        "Longitude(deg)": 174.88375288477712,
        "Mean Anomaly(deg)": 249.6442523023208,
        "RAAN(deg)": 39.95590454341481,
        "Satellite Name": "Starlink Shell 1 188",
        "Satellite Number": 188,
        "Semi-Major Axis(m)": 6931778.249405717,
        "Time(s)": 850
    },
    {
        "Altitude(m)": 570185.5621068877,
        "Argument of Periapsis(deg)": 0.02997774923796637,
        "Eccentricity": 0.0,
        "Inclination(deg)": 53.0,
        "Latitude(deg)": -48.928287025670485,
        "Longitude(deg)": 175.70424762863638,
        "Mean Anomaly(deg)": 250.2710835058775,
        "RAAN(deg)": 39.95538577333734,
        "Satellite Name": "Starlink Shell 1 188",
        "Satellite Number": 188,
        "Semi-Major Axis(m)": 6931778.249405717,
        "Time(s)": 860
    },
    {
        "Altitude(m)": 570286.3910927753,
        "Argument of Periapsis(deg)": 0.030326327717477602,
        "Eccentricity": 0.0,
        "Inclination(deg)": 53.0,
        "Latitude(deg)": -49.17992904368869,
        "Longitude(deg)": 176.53354181515962,
        "Mean Anomaly(deg)": 250.8979147094342,
        "RAAN(deg)": 39.954867003259864,
        "Satellite Name": "Starlink Shell 1 188",
        "Satellite Number": 188,
        "Semi-Major Axis(m)": 6931778.249405717,
        "Time(s)": 870
    },
    {
        "Altitude(m)": 570384.3600849065,
        "Argument of Periapsis(deg)": 0.030674906196988847,
        "Eccentricity": 0.0,
        "Inclination(deg)": 53.0,
        "Latitude(deg)": -49.42493094305716,
        "Longitude(deg)": 177.37157257178526,
        "Mean Anomaly(deg)": 251.5247459129909,
        "RAAN(deg)": 39.954348233182394,
        "Satellite Name": "Starlink Shell 1 188",
        "Satellite Number": 188,
        "Semi-Major Axis(m)": 6931778.249405717,
        "Time(s)": 880
    },
    {
        "Altitude(m)": 570479.4301602158,
        "Argument of Periapsis(deg)": 0.031023484676500086,
        "Eccentricity": 0.0,
        "Inclination(deg)": 53.0,
        "Latitude(deg)": -49.66317004937818,
        "Longitude(deg)": 178.21826348331598,
        "Mean Anomaly(deg)": 252.15157711654766,
        "RAAN(deg)": 39.953829463104924,
        "Satellite Name": "Starlink Shell 1 188",
        "Satellite Number": 188,
        "Semi-Major Axis(m)": 6931778.249405717,
        "Time(s)": 890
    },
    {
        "Altitude(m)": 570571.5635326041,
        "Argument of Periapsis(deg)": 0.03137206315601132,
        "Eccentricity": 0.0,
        "Inclination(deg)": 53.0,
        "Latitude(deg)": -49.89452423343088,
        "Longitude(deg)": 179.07352463546775,
        "Mean Anomaly(deg)": 252.77840832010435,
        "RAAN(deg)": 39.95331069302745,
        "Satellite Name": "Starlink Shell 1 188",
        "Satellite Number": 188,
        "Semi-Major Axis(m)": 6931778.249405717,
        "Time(s)": 900
    },
    {
        "Altitude(m)": 570660.723569393,
        "Argument of Periapsis(deg)": 0.03172064163552255,
        "Eccentricity": 0.0,
        "Inclination(deg)": 53.0,
        "Latitude(deg)": -50.118872134016286,
        "Longitude(deg)": 179.93725117549286,
        "Mean Anomaly(deg)": 253.40523952366107,
        "RAAN(deg)": 39.95279192294998,
        "Satellite Name": "Starlink Shell 1 188",
        "Satellite Number": 188,
        "Semi-Major Axis(m)": 6931778.249405717,
        "Time(s)": 910
    },
    {
        "Altitude(m)": 570746.8748072758,
        "Argument of Periapsis(deg)": 0.0320692201150338,
        "Eccentricity": 0.0,
        "Inclination(deg)": 53.0,
        "Latitude(deg)": -50.33609339053409,
        "Longitude(deg)": -179.1906765794438,
        "Mean Anomaly(deg)": 254.03207072721776,
        "RAAN(deg)": 39.95227315287251,
        "Satellite Name": "Starlink Shell 1 188",
        "Satellite Number": 188,
        "Semi-Major Axis(m)": 6931778.249405717,
        "Time(s)": 920
    },
    {
        "Altitude(m)": 570829.9829677526,
        "Argument of Periapsis(deg)": 0.032417798594545036,
        "Eccentricity": 0.0,
        "Inclination(deg)": 53.0,
        "Latitude(deg)": -50.546068884732044,
        "Longitude(deg)": -178.31039299397227,
        "Mean Anomaly(deg)": 254.65890193077448,
        "RAAN(deg)": 39.95175438279503,
        "Satellite Name": "Starlink Shell 1 188",
        "Satellite Number": 188,
        "Semi-Major Axis(m)": 6931778.249405717,
        "Time(s)": 930
    },
    {
        "Altitude(m)": 570910.0149720403,
        "Argument of Periapsis(deg)": 0.03276637707405627,
        "Eccentricity": 0.0,
        "Inclination(deg)": 53.0,
        "Latitude(deg)": -50.74868099095827,
        "Longitude(deg)": -177.4220484340874,
        "Mean Anomaly(deg)": 255.2857331343312,
        "RAAN(deg)": 39.95123561271756,
        "Satellite Name": "Starlink Shell 1 188",
        "Satellite Number": 188,
        "Semi-Major Axis(m)": 6931778.249405717,
        "Time(s)": 940
    }
]